MALLIGYONG-1            
1 58400U 23179A   24048.46410394  .00008244  00000+0  35834-3 0  9991
2 58400  97.4211 297.1003 0014784 336.1343  23.9206 15.22438383 13366
